[{"OBJECT_NAME":"HAWK-11C","OBJECT_ID":"2024-247E","EPOCH":"2026-03-09T12:17:35.407968","MEAN_MOTION":15.2884802,"ECCENTRICITY":0.00059001,"INCLINATION":45.0045,"RA_OF_ASC_NODE":114.8762,"ARG_OF_PERICENTER":329.704,"MEAN_ANOMALY":30.3502,"EPHEMERIS_TYPE":0,"CLASSIFICATION_TYPE":"U","NORAD_CAT_ID":62381,"ELEMENT_SET_NO":999,"REV_AT_EPOCH":6774,"BSTAR":0.00033290115,"MEAN_MOTION_DOT":9.223e-5,"MEAN_MOTION_DDOT":0},{"OBJECT_NAME":"STARLINK-35081","OBJECT_ID":"2025-240C","EPOCH":"2026-03-09T23:12:45.392256","MEAN_MOTION":15.30212281,"ECCENTRICITY":0.00023754,"INCLINATION":53.1616,"RA_OF_ASC_NODE":61.3252,"ARG_OF_PERICENTER":79.1326,"MEAN_ANOMALY":280.9942,"EPHEMERIS_TYPE":0,"CLASSIFICATION_TYPE":"U","NORAD_CAT_ID":66148,"ELEMENT_SET_NO":999,"REV_AT_EPOCH":2203,"BSTAR":0.00086239339,"MEAN_MOTION_DOT":0.0002528,"MEAN_MOTION_DDOT":0}]
